QIANFAN-25              
1 61558U 24185G   25280.24499981  .00000496  00000+0  29541-3 0  9990
2 61558  88.9749  85.7122 0009868 144.1336 216.0510 14.05813500 60165
QIANFAN-26              
1 61559U 24185H   25280.29704580  .00000344  00000+0  33156-3 0  9999
2 61559  88.9749  86.9204 0004948 193.4073 166.6962 13.77756755 59524
QIANFAN-27              
1 61560U 24185J   25280.28550970  .00000831  00000+0  33416-3 0  9992
2 61560  88.9748  84.7329 0009412 136.5421 223.6517 14.27205518 60686
QIANFAN-28              
1 61561U 24185K   25280.29840784  .00001266  00000+0  50641-3 0  9991
2 61561  88.9764  84.7294 0008501 135.7788 224.4088 14.27824655 60693
QIANFAN-29              
1 61562U 24185L   25280.30395884  .00000232  00000+0  34097-3 0  9999
2 61562  88.9726  88.1745 0008556 238.1973 121.8345 13.50976989 58826
QIANFAN-30              
1 61563U 24185M   25280.30266098  .00000230  00000+0  34304-3 0  9993
2 61563  88.9746  87.6744 0006352 217.2076 142.8636 13.49954583 59108
QIANFAN-31              
1 61564U 24185N   25280.29254539  .00000254  00000+0  33582-3 0  9992
2 61564  88.9731  87.5827 0006044 212.2531 147.8255 13.57927359 59149
QIANFAN-32              
1 61565U 24185P   25280.30788862  .00000228  00000+0  33594-3 0  9990
2 61565  88.9789  87.7880 0007637 250.6591 109.3734 13.50706202 59077
